COMMENT,ORIGINATOR,NORAD_CAT_ID,OBJECT_NAME,OBJECT_TYPE,CLASSIFICATION_TYPE,INTLDES,EPOCH,EPOCH_MICROSECONDS,MEAN_MOTION,ECCENTRICITY,INCLINATION,RA_OF_ASC_NODE,ARG_OF_PERICENTER,MEAN_ANOMALY,EPHEMERIS_TYPE,ELEMENT_SET_NO,REV_AT_EPOCH,BSTAR,MEAN_MOTION_DOT,MEAN_MOTION_DDOT,FILE,TLE_LINE0,TLE_LINE1,TLE_LINE2,OBJECT_ID,OBJECT_NUMBER,SEMIMAJOR_AXIS,PERIOD,APOGEE,PERIGEE,DECAYED
GENERATED VIA SPACETRACK.ORG API,18 SPCS,57309,STARLINK-30163,PAYLOAD,U,23096V,2025-06-05 15:10:52,947264,15.20330423,0.0017857,42.9969,275.6596,337.8222,22.1853,0,999,10518,0.0017472,0.00038844,0,4749655,0 STARLINK-30163,1 57309U 23096V   25156.63255726  .00038844  00000-0  17472-2 0  9999,2 57309  42.9969 275.6596 0017857 337.8222  22.1853 15.20330423105189,2023-096V,57309,6882.980,94.716,517.136,492.554,1
GENERATED VIA SPACETRACK.ORG API,18 SPCS,57309,STARLINK-30163,PAYLOAD,U,23096V,2025-06-06 14:49:56,52768,15.20412593,0.0017838,42.9966,270.1545,344.1777,15.8513,0,999,10533,0.0017388,0.00038748,0,4750170,0 STARLINK-30163,1 57309U 23096V   25157.61800987  .00038748  00000-0  17388-2 0  9992,2 57309  42.9966 270.1545 0017838 344.1777  15.8513 15.20412593105333,2023-096V,57309,6882.732,94.711,516.875,492.320,1
GENERATED VIA SPACETRACK.ORG API,18 SPCS,57309,STARLINK-30163,PAYLOAD,U,23096V,2025-06-07 00:17:32,40960,15.20444161,0.0017781,42.9966,267.9526,346.6156,13.422,0,999,10536,0.0017193,0.00038343,0,4750691,0 STARLINK-30163,1 57309U 23096V   25158.01217640  .00038343  00000-0  17193-2 0  9990,2 57309  42.9966 267.9526 0017781 346.6156  13.4220 15.20444161105369,2023-096V,57309,6882.637,94.709,516.740,492.264,1
GENERATED VIA SPACETRACK.ORG API,18 SPCS,57309,STARLINK-30163,PAYLOAD,U,23096V,2025-06-07 14:28:54,615360,15.20497756,0.0017754,42.9965,264.6494,350.4012,9.6496,0,999,10548,0.0019535,0.000437,0,4751106,0 STARLINK-30163,1 57309U 23096V   25158.60340990  .00043700  00000-0  19535-2 0  9995,2 57309  42.9965 264.6494 0017754 350.4012   9.6496 15.20497756105483,2023-096V,57309,6882.475,94.706,516.559,492.121,1
GENERATED VIA SPACETRACK.ORG API,18 SPCS,57309,STARLINK-30163,PAYLOAD,U,23096V,2025-06-07 16:03:30,352320,15.20501998,0.0017755,42.9967,264.2823,350.4266,9.6243,0,999,10549,0.0019181,0.00042904,0,4751523,0 STARLINK-30163,1 57309U 23096V   25158.66910130  .00042904  00000-0  19181-2 0  9992,2 57309  42.9967 264.2823 0017755 350.4266   9.6243 15.20501998105494,2023-096V,57309,6882.462,94.706,516.547,492.108,1
GENERATED VIA SPACETRACK.ORG API,18 SPCS,57309,STARLINK-30163,PAYLOAD,U,23096V,2025-06-07 16:03:30,352320,15.20501998,0.0017755,42.9967,264.2823,350.4266,9.6243,0,999,10546,0.0019181,0.00042904,0,4751685,0 STARLINK-30163,1 57309U 23096V   25158.66910130  .00042904  00000-0  19181-2 0  9992,2 57309  42.9967 264.2823 0017755 350.4266   9.6243 15.20501998105461,2023-096V,57309,6882.462,94.706,516.547,492.108,1
GENERATED VIA SPACETRACK.ORG API,18 SPCS,57309,STARLINK-30163,PAYLOAD,U,23096V,2025-06-08 14:07:48,191808,15.20584312,0.0017692,42.9963,259.1438,356.2881,3.7834,0,999,10563,0.0017157,0.00038419,0,4752310,0 STARLINK-30163,1 57309U 23096V   25159.58875222  .00038419  00000-0  17157-2 0  9993,2 57309  42.9963 259.1438 0017692 356.2881   3.7834 15.20584312105630,2023-096V,57309,6882.214,94.700,516.255,491.903,1
GENERATED VIA SPACETRACK.ORG API,18 SPCS,57309,STARLINK-30163,PAYLOAD,U,23096V,2025-06-09 13:46:36,536736,15.20681288,0.0017554,42.9955,253.6377,2.4566,357.6366,0,999,10578,0.0019662,0.00044223,0,4752400,0 STARLINK-30163,1 57309U 23096V   25160.57403399  .00044223  00000-0  19662-2 0  9999,2 57309  42.9955 253.6377 0017554   2.4566 357.6366 15.20681288105786,2023-096V,57309,6881.921,94.694,515.867,491.706,1
GENERATED VIA SPACETRACK.ORG API,18 SPCS,57309,STARLINK-30163,PAYLOAD,U,23096V,2025-06-10 13:25:20,72640,15.20756525,0.0017433,42.9958,248.1308,8.8101,351.3051,0,999,10593,0.0014447,0.00032446,0,4752668,0 STARLINK-30163,1 57309U 23096V   25161.55926010  .00032446  00000-0  14447-2 0  9998,2 57309  42.9958 248.1308 0017433   8.8101 351.3051 15.20756525105939,2023-096V,57309,6881.694,94.690,515.556,491.563,1
GENERATED VIA SPACETRACK.ORG API,18 SPCS,57309,STARLINK-30163,PAYLOAD,U,23096V,2025-06-10 13:25:20,72640,15.20756525,0.0017433,42.9958,248.1308,8.8101,351.3051,0,999,10590,0.0014447,0.00032446,0,4752823,0 STARLINK-30163,1 57309U 23096V   25161.55926010  .00032446  00000-0  14447-2 0  9998,2 57309  42.9958 248.1308 0017433   8.8101 351.3051 15.20756525105906,2023-096V,57309,6881.694,94.690,515.556,491.563,1
GENERATED VIA SPACETRACK.ORG API,18 SPCS,57309,STARLINK-30163,PAYLOAD,U,23096V,2025-06-11 05:11:06,792576,15.20810449,0.0017381,42.9957,244.4597,12.9764,347.1529,0,999,10600,0.0017503,0.00039461,0,4753394,0 STARLINK-30163,1 57309U 23096V   25162.21605084  .00039461  00000-0  17503-2 0  9997,2 57309  42.9957 244.4597 0017381  12.9764 347.1529 15.20810449106008,2023-096V,57309,6881.532,94.686,515.358,491.436,1
GENERATED VIA SPACETRACK.ORG API,18 SPCS,57309,STARLINK-30163,PAYLOAD,U,23096V,2025-06-11 13:03:59,496768,15.20833576,0.0017635,42.9956,242.6253,15.0997,345.0375,0,999,10608,0.0016008,0.00036081,0,4753611,0 STARLINK-30163,1 57309U 23096V   25162.54443862  .00036081  00000-0  16008-2 0  9991,2 57309  42.9956 242.6253 0017635  15.0997 345.0375 15.20833576106080,2023-096V,57309,6881.462,94.685,515.462,491.191,1
GENERATED VIA SPACETRACK.ORG API,18 SPCS,57309,STARLINK-30163,PAYLOAD,U,23096V,2025-06-12 06:24:17,460000,15.20902942,0.0017268,42.9954,238.5858,19.8384,340.3133,0,999,10616,0.0022028,0.00049931,0,4754309,0 STARLINK-30163,1 57309U 23096V   25163.26686875  .00049931  00000-0  22028-2 0  9991,2 57309  42.9954 238.5858 0017268  19.8384 340.3133 15.20902942106160,2023-096V,57309,6881.253,94.681,515.000,491.235,1
GENERATED VIA SPACETRACK.ORG API,18 SPCS,57309,STARLINK-30163,PAYLOAD,U,23096V,2025-06-12 22:09:58,432608,15.20970845,0.0017223,42.9954,234.9145,23.983,336.1818,0,999,10629,0.0021837,0.00049591,0,4754891,0 STARLINK-30163,1 57309U 23096V   25163.92359297  .00049591  00000-0  21837-2 0  9998,2 57309  42.9954 234.9145 0017223  23.9830 336.1818 15.20970845106296,2023-096V,57309,6881.048,94.676,514.764,491.062,1
GENERATED VIA SPACETRACK.ORG API,18 SPCS,57309,STARLINK-30163,PAYLOAD,U,23096V,2025-06-13 13:55:36,284448,15.2108891,0.0017095,42.9952,231.2428,28.2959,331.8816,0,999,10639,0.0055141,0.00127359,0,4755476,0 STARLINK-30163,1 57309U 23096V   25164.58028107  .00127359  00000-0  55141-2 0  9998,2 57309  42.9952 231.2428 0017095  28.2959 331.8816 15.21088910106390,2023-096V,57309,6880.692,94.669,514.319,490.794,1
GENERATED VIA SPACETRACK.ORG API,18 SPCS,57309,STARLINK-30163,PAYLOAD,U,23096V,2025-06-13 13:55:36,284448,15.2108891,0.0017095,42.9952,231.2428,28.2959,331.8816,0,999,10636,0.0055141,0.00127359,0,4755625,0 STARLINK-30163,1 57309U 23096V   25164.58028107  .00127359  00000-0  55141-2 0  9998,2 57309  42.9952 231.2428 0017095  28.2959 331.8816 15.21088910106367,2023-096V,57309,6880.692,94.669,514.319,490.794,1
GENERATED VIA SPACETRACK.ORG API,18 SPCS,57309,STARLINK-30163,PAYLOAD,U,23096V,2025-06-13 21:48:23,666400,15.21143694,0.001711,42.9951,229.4075,30.4254,329.7585,0,999,10644,0.0048841,0.0011274,0,4755872,0 STARLINK-30163,1 57309U 23096V   25164.90860725  .00112740  00000-0  48841-2 0  9991,2 57309  42.9951 229.4075 0017110  30.4254 329.7585 15.21143694106443,2023-096V,57309,6880.527,94.666,514.164,490.619,1
GENERATED VIA SPACETRACK.ORG API,18 SPCS,57309,STARLINK-30163,PAYLOAD,U,23096V,2025-06-13 21:48:23,666400,15.21143694,0.001711,42.9951,229.4075,30.4254,329.7585,0,999,10641,0.0048841,0.0011274,0,4756036,0 STARLINK-30163,1 57309U 23096V   25164.90860725  .00112740  00000-0  48841-2 0  9991,2 57309  42.9951 229.4075 0017110  30.4254 329.7585 15.21143694106410,2023-096V,57309,6880.527,94.666,514.164,490.619,1
GENERATED VIA SPACETRACK.ORG API,18 SPCS,57309,STARLINK-30163,PAYLOAD,U,23096V,2025-06-14 11:59:22,485984,15.21209072,0.0017028,42.9956,226.1018,33.3976,326.7944,0,999,10650,0.0020269,0.00046312,0,4756409,0 STARLINK-30163,1 57309U 23096V   25165.49956581  .00046312  00000-0  20269-2 0  9997,2 57309  42.9956 226.1018 0017028  33.3976 326.7944 15.21209072106506,2023-096V,57309,6880.329,94.662,513.910,490.479,1
GENERATED VIA SPACETRACK.ORG API,18 SPCS,57309,STARLINK-30163,PAYLOAD,U,23096V,2025-06-14 13:33:55,559232,15.2121573,0.0017019,42.9956,225.7346,33.8816,326.3117,0,999,10654,0.0019935,0.00045549,0,4756652,0 STARLINK-30163,1 57309U 23096V   25165.56522638  .00045549  00000-0  19935-2 0  9996,2 57309  42.9956 225.7346 0017019  33.8816 326.3117 15.21215730106543,2023-096V,57309,6880.309,94.661,513.884,490.465,1
GENERATED VIA SPACETRACK.ORG API,18 SPCS,57309,STARLINK-30163,PAYLOAD,U,23096V,2025-06-15 11:37:35,641056,15.21303056,0.0016801,42.9958,220.592,40.0919,320.1167,0,999,10668,0.0016564,0.00037859,0,4757502,0 STARLINK-30163,1 57309U 23096V   25166.48444029  .00037859  00000-0  16564-2 0  9995,2 57309  42.9958 220.5920 0016801  40.0919 320.1167 15.21303056106689,2023-096V,57309,6880.046,94.656,513.470,490.352,1
GENERATED VIA SPACETRACK.ORG API,18 SPCS,57309,STARLINK-30163,PAYLOAD,U,23096V,2025-06-16 04:57:34,531488,15.2135959,0.0016666,42.9958,216.5515,45.3081,314.9123,0,999,10676,0.0015254,0.00034887,0,4757919,0 STARLINK-30163,1 57309U 23096V   25167.20664967  .00034887  00000-0  15254-2 0  9994,2 57309  42.9958 216.5515 0016666  45.3081 314.9123 15.21359590106767,2023-096V,57309,6879.876,94.652,513.207,490.275,1
GENERATED VIA SPACETRACK.ORG API,18 SPCS,57309,STARLINK-30163,PAYLOAD,U,23096V,2025-06-16 09:41:12,52608,15.21371829,0.0016714,42.9959,215.4493,46.4698,313.7537,0,999,10682,0.0016104,0.00036869,0,4758401,0 STARLINK-30163,1 57309U 23096V   25167.40361172  .00036869  00000-0  16104-2 0  9995,2 57309  42.9959 215.4493 0016714  46.4698 313.7537 15.21371829106823,2023-096V,57309,6879.839,94.651,513.203,490.205,1
